[{"OBJECT_NAME":"EUTELSAT HOTBIRD 13C","OBJECT_ID":"2008-065A","EPOCH":"2022-08-18T20:36:38.922048","MEAN_MOTION":1.00272636,"ECCENTRICITY":0.000552,"INCLINATION":0.0608,"RA_OF_ASC_NODE":60.3957,"ARG_OF_PERICENTER":83.3643,"MEAN_ANOMALY":145.5532,"EPHEMERIS_TYPE":0,"CLASSIFICATION_TYPE":"U","NORAD_CAT_ID":33459,"ELEMENT_SET_NO":999,"REV_AT_EPOCH":3332,"BSTAR":0,"MEAN_MOTION_DOT":8.0e-7,"MEAN_MOTION_DDOT":0},{"OBJECT_NAME":"EUTELSAT 48D","OBJECT_ID":"2008-065B","EPOCH":"2022-08-18T20:26:42.515808","MEAN_MOTION":1.00272268,"ECCENTRICITY":0.0003619,"INCLINATION":1.6156,"RA_OF_ASC_NODE":91.8638,"ARG_OF_PERICENTER":54.8054,"MEAN_ANOMALY":114.693,"EPHEMERIS_TYPE":0,"CLASSIFICATION_TYPE":"U","NORAD_CAT_ID":33460,"ELEMENT_SET_NO":999,"REV_AT_EPOCH":4993,"BSTAR":0,"MEAN_MOTION_DOT":-1.08e-6,"MEAN_MOTION_DDOT":0},{"OBJECT_NAME":"FENGYUN 2E","OBJECT_ID":"2008-066A","EPOCH":"2022-08-18T22:41:06.506016","MEAN_MOTION":1.00267344,"ECCENTRICITY":0.0002988,"INCLINATION":6.04,"RA_OF_ASC_NODE":64.9474,"ARG_OF_PERICENTER":23.137,"MEAN_ANOMALY":306.0791,"EPHEMERIS_TYPE":0,"CLASSIFICATION_TYPE":"U","NORAD_CAT_ID":33463,"ELEMENT_SET_NO":999,"REV_AT_EPOCH":5006,"BSTAR":0,"MEAN_MOTION_DOT":-2.11e-6,"MEAN_MOTION_DDOT":0},{"OBJECT_NAME":"DELTA 4H R\/B","OBJECT_ID":"2009-001B","EPOCH":"2022-08-17T21:05:44.616768","MEAN_MOTION":0.96059374,"ECCENTRICITY":0.0273227,"INCLINATION":7.3309,"RA_OF_ASC_NODE":38.1575,"ARG_OF_PERICENTER":40.8108,"MEAN_ANOMALY":321.3266,"EPHEMERIS_TYPE":0,"CLASSIFICATION_TYPE":"U","NORAD_CAT_ID":33491,"ELEMENT_SET_NO":999,"REV_AT_EPOCH":1071,"BSTAR":0,"MEAN_MOTION_DOT":-2.01e-6,"MEAN_MOTION_DDOT":0},{"OBJECT_NAME":"TITAN 3C TRANSTAGE DEB","OBJECT_ID":"1968-081L","EPOCH":"2022-08-19T01:43:35.245344","MEAN_MOTION":1.01841344,"ECCENTRICITY":0.0057219,"INCLINATION":1.901,"RA_OF_ASC_NODE":310.3546,"ARG_OF_PERICENTER":29.2187,"MEAN_ANOMALY":15.7694,"EPHEMERIS_TYPE":0,"CLASSIFICATION_TYPE":"U","NORAD_CAT_ID":33510,"ELEMENT_SET_NO":999,"REV_AT_EPOCH":5447,"BSTAR":0,"MEAN_MOTION_DOT":6.0e-7,"MEAN_MOTION_DDOT":0},{"OBJECT_NAME":"TITAN 3C TRANSTAGE DEB","OBJECT_ID":"1968-081M","EPOCH":"2022-08-18T20:48:04.525056","MEAN_MOTION":1.00779618,"ECCENTRICITY":0.011696,"INCLINATION":2.5641,"RA_OF_ASC_NODE":310.1263,"ARG_OF_PERICENTER":7.3339,"MEAN_ANOMALY":14.0631,"EPHEMERIS_TYPE":0,"CLASSIFICATION_TYPE":"U","NORAD_CAT_ID":33511,"ELEMENT_SET_NO":999,"REV_AT_EPOCH":5333,"BSTAR":0,"MEAN_MOTION_DOT":-2.7e-7,"MEAN_MOTION_DDOT":0},{"OBJECT_NAME":"TITAN 3C TRANSTAGE DEB","OBJECT_ID":"1968-081N","EPOCH":"2022-08-17T20:34:13.866816","MEAN_MOTION":1.00916557,"ECCENTRICITY":0.013819,"INCLINATION":2.2427,"RA_OF_ASC_NODE":314.3607,"ARG_OF_PERICENTER":359.9231,"MEAN_ANOMALY":0.2595,"EPHEMERIS_TYPE":0,"CLASSIFICATION_TYPE":"U","NORAD_CAT_ID":33512,"ELEMENT_SET_NO":999,"REV_AT_EPOCH":5950,"BSTAR":0,"MEAN_MOTION_DOT":3.8e-7,"MEAN_MOTION_DDOT":0},{"OBJECT_NAME":"TITAN 3C TRANSTAGE DEB","OBJECT_ID":"1968-081P","EPOCH":"2022-08-18T14:45:37.856736","MEAN_MOTION":1.01396585,"ECCENTRICITY":0.0087158,"INCLINATION":2.0279,"RA_OF_ASC_NODE":312.576,"ARG_OF_PERICENTER":359.4291,"MEAN_ANOMALY":106.8432,"EPHEMERIS_TYPE":0,"CLASSIFICATION_TYPE":"U","NORAD_CAT_ID":33513,"ELEMENT_SET_NO":999,"REV_AT_EPOCH":3369,"BSTAR":0,"MEAN_MOTION_DOT":-9.8e-7,"MEAN_MOTION_DDOT":0},{"OBJECT_NAME":"GOES 5 AKM","OBJECT_ID":"1981-049D","EPOCH":"2022-08-18T12:46:56.079264","MEAN_MOTION":0.82271753,"ECCENTRICITY":0.1650494,"INCLINATION":19.5253,"RA_OF_ASC_NODE":326.766,"ARG_OF_PERICENTER":115.5622,"MEAN_ANOMALY":273.3063,"EPHEMERIS_TYPE":0,"CLASSIFICATION_TYPE":"U","NORAD_CAT_ID":33521,"ELEMENT_SET_NO":999,"REV_AT_EPOCH":4709,"BSTAR":0,"MEAN_MOTION_DOT":-2.36e-6,"MEAN_MOTION_DDOT":0},{"OBJECT_NAME":"COSMOS 1285 DEB","OBJECT_ID":"1981-071Z","EPOCH":"2022-08-18T12:02:59.826912","MEAN_MOTION":1.98299778,"ECCENTRICITY":0.6362492,"INCLINATION":68.9463,"RA_OF_ASC_NODE":158.0669,"ARG_OF_PERICENTER":14.0577,"MEAN_ANOMALY":160.8218,"EPHEMERIS_TYPE":0,"CLASSIFICATION_TYPE":"U","NORAD_CAT_ID":33524,"ELEMENT_SET_NO":999,"REV_AT_EPOCH":7421,"BSTAR":0,"MEAN_MOTION_DOT":-2.36e-6,"MEAN_MOTION_DDOT":0},{"OBJECT_NAME":"ARIANE 3 DEB","OBJECT_ID":"1988-081L","EPOCH":"2022-08-18T12:56:23.162208","MEAN_MOTION":2.15537395,"ECCENTRICITY":0.692694,"INCLINATION":6.8069,"RA_OF_ASC_NODE":344.172,"ARG_OF_PERICENTER":29.566,"MEAN_ANOMALY":8.0479,"EPHEMERIS_TYPE":0,"CLASSIFICATION_TYPE":"U","NORAD_CAT_ID":33536,"ELEMENT_SET_NO":999,"REV_AT_EPOCH":14472,"BSTAR":0,"MEAN_MOTION_DOT":-9.2e-7,"MEAN_MOTION_DDOT":0},{"OBJECT_NAME":"ARIANE 3 DEB","OBJECT_ID":"1988-081M","EPOCH":"2022-08-18T22:28:33.093696","MEAN_MOTION":2.16915335,"ECCENTRICITY":0.7011761,"INCLINATION":6.3631,"RA_OF_ASC_NODE":182.833,"ARG_OF_PERICENTER":335.6928,"MEAN_ANOMALY":214.523,"EPHEMERIS_TYPE":0,"CLASSIFICATION_TYPE":"U","NORAD_CAT_ID":33537,"ELEMENT_SET_NO":999,"REV_AT_EPOCH":13375,"BSTAR":0,"MEAN_MOTION_DOT":-2.22e-6,"MEAN_MOTION_DDOT":0},{"OBJECT_NAME":"ARIANE 3 DEB","OBJECT_ID":"1988-081N","EPOCH":"2022-08-18T11:30:57.530592","MEAN_MOTION":2.23698706,"ECCENTRICITY":0.7203035,"INCLINATION":6.8671,"RA_OF_ASC_NODE":163.3717,"ARG_OF_PERICENTER":346.483,"MEAN_ANOMALY":121.1571,"EPHEMERIS_TYPE":0,"CLASSIFICATION_TYPE":"U","NORAD_CAT_ID":33538,"ELEMENT_SET_NO":999,"REV_AT_EPOCH":13911,"BSTAR":0.0031389,"MEAN_MOTION_DOT":1.45e-6,"MEAN_MOTION_DDOT":0},{"OBJECT_NAME":"ARIANE 3 DEB","OBJECT_ID":"1988-081P","EPOCH":"2022-08-16T22:42:22.098240","MEAN_MOTION":2.1969354,"ECCENTRICITY":0.710994,"INCLINATION":7.205,"RA_OF_ASC_NODE":250.7299,"ARG_OF_PERICENTER":183.0707,"MEAN_ANOMALY":166.9572,"EPHEMERIS_TYPE":0,"CLASSIFICATION_TYPE":"U","NORAD_CAT_ID":33539,"ELEMENT_SET_NO":999,"REV_AT_EPOCH":1390,"BSTAR":-0.0024085,"MEAN_MOTION_DOT":-1.1e-6,"MEAN_MOTION_DDOT":0},{"OBJECT_NAME":"ARIANE 44LP DEB","OBJECT_ID":"1988-109Q","EPOCH":"2022-08-18T17:32:27.087648","MEAN_MOTION":2.23923653,"ECCENTRICITY":0.7106306,"INCLINATION":7.1975,"RA_OF_ASC_NODE":57.4123,"ARG_OF_PERICENTER":74.6788,"MEAN_ANOMALY":304.6107,"EPHEMERIS_TYPE":0,"CLASSIFICATION_TYPE":"U","NORAD_CAT_ID":33541,"ELEMENT_SET_NO":999,"REV_AT_EPOCH":16097,"BSTAR":-0.0018725,"MEAN_MOTION_DOT":-2.95e-6,"MEAN_MOTION_DDOT":0},{"OBJECT_NAME":"ARIANE 44LP DEB","OBJECT_ID":"1988-109R","EPOCH":"2022-08-18T19:25:27.078816","MEAN_MOTION":2.24202723,"ECCENTRICITY":0.7125008,"INCLINATION":7.4185,"RA_OF_ASC_NODE":355.4335,"ARG_OF_PERICENTER":192.1726,"MEAN_ANOMALY":240.4928,"EPHEMERIS_TYPE":0,"CLASSIFICATION_TYPE":"U","NORAD_CAT_ID":33542,"ELEMENT_SET_NO":999,"REV_AT_EPOCH":14020,"BSTAR":0.0089311,"MEAN_MOTION_DOT":2.18e-6,"MEAN_MOTION_DDOT":0},{"OBJECT_NAME":"ARIANE 44LP DEB","OBJECT_ID":"1988-109S","EPOCH":"2022-08-18T10:33:22.656384","MEAN_MOTION":2.25852762,"ECCENTRICITY":0.7177249,"INCLINATION":6.5165,"RA_OF_ASC_NODE":227.7824,"ARG_OF_PERICENTER":88.4655,"MEAN_ANOMALY":12.6201,"EPHEMERIS_TYPE":0,"CLASSIFICATION_TYPE":"U","NORAD_CAT_ID":33543,"ELEMENT_SET_NO":999,"REV_AT_EPOCH":16408,"BSTAR":-0.0003162,"MEAN_MOTION_DOT":-2.19e-6,"MEAN_MOTION_DDOT":0},{"OBJECT_NAME":"ARIANE 44LP DEB","OBJECT_ID":"1988-109V","EPOCH":"2022-08-18T20:49:40.766880","MEAN_MOTION":2.23329458,"ECCENTRICITY":0.7128379,"INCLINATION":7.3221,"RA_OF_ASC_NODE":26.9909,"ARG_OF_PERICENTER":132.1057,"MEAN_ANOMALY":37.346,"EPHEMERIS_TYPE":0,"CLASSIFICATION_TYPE":"U","NORAD_CAT_ID":33546,"ELEMENT_SET_NO":999,"REV_AT_EPOCH":14488,"BSTAR":0.0039159,"MEAN_MOTION_DOT":-1.0e-6,"MEAN_MOTION_DDOT":0},{"OBJECT_NAME":"ARIANE 2 DEB","OBJECT_ID":"1989-006AQ","EPOCH":"2022-08-16T03:36:45.513792","MEAN_MOTION":2.22372146,"ECCENTRICITY":0.6941186,"INCLINATION":9.8136,"RA_OF_ASC_NODE":76.1479,"ARG_OF_PERICENTER":94.331,"MEAN_ANOMALY":340.9368,"EPHEMERIS_TYPE":0,"CLASSIFICATION_TYPE":"U","NORAD_CAT_ID":33548,"ELEMENT_SET_NO":999,"REV_AT_EPOCH":13680,"BSTAR":0,"MEAN_MOTION_DOT":-1.66e-6,"MEAN_MOTION_DDOT":0},{"OBJECT_NAME":"ARIANE 2 DEB","OBJECT_ID":"1989-006AT","EPOCH":"2022-08-18T09:09:59.414688","MEAN_MOTION":2.20973509,"ECCENTRICITY":0.6894087,"INCLINATION":8.363,"RA_OF_ASC_NODE":180.9901,"ARG_OF_PERICENTER":261.5792,"MEAN_ANOMALY":250.1756,"EPHEMERIS_TYPE":0,"CLASSIFICATION_TYPE":"U","NORAD_CAT_ID":33551,"ELEMENT_SET_NO":999,"REV_AT_EPOCH":13766,"BSTAR":0,"MEAN_MOTION_DOT":-4.7e-7,"MEAN_MOTION_DDOT":0},{"OBJECT_NAME":"ARIANE 2 DEB","OBJECT_ID":"1989-006BA","EPOCH":"2022-08-18T15:14:15.252864","MEAN_MOTION":2.21970412,"ECCENTRICITY":0.6953084,"INCLINATION":10.2894,"RA_OF_ASC_NODE":63.3019,"ARG_OF_PERICENTER":113.1281,"MEAN_ANOMALY":330.896,"EPHEMERIS_TYPE":0,"CLASSIFICATION_TYPE":"U","NORAD_CAT_ID":33558,"ELEMENT_SET_NO":999,"REV_AT_EPOCH":7373,"BSTAR":0,"MEAN_MOTION_DOT":-1.78e-6,"MEAN_MOTION_DDOT":0},{"OBJECT_NAME":"ARIANE 2 DEB","OBJECT_ID":"1989-006BC","EPOCH":"2022-08-16T10:15:03.809952","MEAN_MOTION":2.25083071,"ECCENTRICITY":0.7078394,"INCLINATION":10.1234,"RA_OF_ASC_NODE":162.2631,"ARG_OF_PERICENTER":249.8029,"MEAN_ANOMALY":312.9457,"EPHEMERIS_TYPE":0,"CLASSIFICATION_TYPE":"U","NORAD_CAT_ID":33560,"ELEMENT_SET_NO":999,"REV_AT_EPOCH":14929,"BSTAR":-0.009668,"MEAN_MOTION_DOT":-2.49e-6,"MEAN_MOTION_DDOT":0},{"OBJECT_NAME":"ARIANE 2 DEB","OBJECT_ID":"1989-006BD","EPOCH":"2022-08-13T23:03:54.581760","MEAN_MOTION":2.22229144,"ECCENTRICITY":0.6984629,"INCLINATION":9.3261,"RA_OF_ASC_NODE":353.4979,"ARG_OF_PERICENTER":272.3867,"MEAN_ANOMALY":352.7546,"EPHEMERIS_TYPE":0,"CLASSIFICATION_TYPE":"U","NORAD_CAT_ID":33561,"ELEMENT_SET_NO":999,"REV_AT_EPOCH":14367,"BSTAR":0,"MEAN_MOTION_DOT":-1.0e-6,"MEAN_MOTION_DDOT":0},{"OBJECT_NAME":"ARIANE 2 DEB","OBJECT_ID":"1989-006BE","EPOCH":"2022-08-14T07:13:21.652320","MEAN_MOTION":2.2350134,"ECCENTRICITY":0.704713,"INCLINATION":7.8753,"RA_OF_ASC_NODE":229.5191,"ARG_OF_PERICENTER":162.8806,"MEAN_ANOMALY":245.5163,"EPHEMERIS_TYPE":0,"CLASSIFICATION_TYPE":"U","NORAD_CAT_ID":33562,"ELEMENT_SET_NO":999,"REV_AT_EPOCH":13349,"BSTAR":-0.01178,"MEAN_MOTION_DOT":-2.77e-6,"MEAN_MOTION_DDOT":0}]